OBJECT_NAME,OBJECT_ID,EPOCH,MEAN_MOTION,ECCENTRICITY,INCLINATION,RA_OF_ASC_NODE,ARG_OF_PERICENTER,MEAN_ANOMALY,EPHEMERIS_TYPE,CLASSIFICATION_TYPE,NORAD_CAT_ID,ELEMENT_SET_NO,REV_AT_EPOCH,BSTAR,MEAN_MOTION_DOT,MEAN_MOTION_DDOT
STARLINK-4305,2022-077T,2026-07-01T01:48:12.151296,15.05448412,.0001794,97.2916,0.2890,133.1016,227.0362,0,U,53060,999,21796,.28413E-2,.40953E-3,0
STARLINK-4308,2022-077U,2026-07-01T01:04:19.127712,15.05656748,.0001845,97.2940,0.3124,63.4115,296.7302,0,U,53061,999,21796,-.12902E-3,-.1918E-4,0
STARLINK-4311,2022-077V,2026-07-01T02:00:06.706080,15.05759068,.0002198,97.2907,0.4215,105.8884,254.2585,0,U,53062,999,21797,-.1543E-2,-.22315E-3,0
STARLINK-4307,2022-077W,2026-07-01T01:46:07.687776,15.05657120,.0000873,97.2916,1.4130,89.5991,270.5337,0,U,53063,999,8962,-.12124E-3,-.1805E-4,0
STARLINK-4313,2022-077X,2026-07-01T02:02:05.125056,15.05662137,.00023,97.2909,1.4828,48.6921,311.4504,0,U,53064,999,21804,-.10111E-3,-.1515E-4,0
STARLINK-4312,2022-077Y,2026-07-01T01:44:09.792384,15.05747698,.0001771,97.2932,0.4219,112.0402,248.1014,0,U,53065,999,21797,-.13424E-2,-.19423E-3,0
STARLINK-4309,2022-077Z,2026-07-01T02:16:05.327040,15.05667929,.0001447,97.2906,0.3918,95.4095,264.7298,0,U,53066,999,21797,.54214E-3,.7778E-4,0
STARLINK-4325,2022-077AB,2026-07-01T01:54:06.196032,15.05659610,.0001919,97.2937,1.4769,82.7370,277.4076,0,U,53068,999,21804,-.13768E-3,-.2043E-4,0
STARLINK-4323,2022-077AC,2026-07-01T01:08:18.600000,15.05539422,.000126,97.2927,0.2839,189.0549,171.0656,0,U,53069,999,21796,.16659E-2,.23988E-3,0
STARLINK-4342,2022-077AD,2026-07-01T00:58:17.895360,15.05659638,.0001384,97.2911,1.5273,86.2225,273.9161,0,U,53070,999,21804,-.88567E-4,-.1334E-4,0
STARLINK-4328,2022-077AE,2026-07-01T00:54:18.408384,15.05651297,.0001491,97.2907,1.5121,101.0005,259.1391,0,U,53071,999,21804,.24551E-5,-.21E-6,0
STARLINK-4344,2022-077AF,2026-07-01T02:10:03.438048,15.05654499,.0001625,97.2909,1.4497,104.0712,256.0696,0,U,53072,999,21804,-.45778E-4,-.717E-5,0
STARLINK-4346,2022-077AG,2026-07-01T01:56:42.429696,15.23063935,.0005921,97.6344,11.8536,175.8485,184.2802,0,U,53073,999,21854,.7979E-3,.18764E-3,0
STARLINK-4310,2022-077AH,2026-07-01T04:00:03.000096,15.45933901,.0001694,97.5851,3.8606,82.7109,292.3954,0,U,53074,999,571,.14351E-1,.758191E-2,0
STARLINK-4348,2022-077AJ,2026-07-01T01:16:17.023584,15.05663661,.0000911,97.2931,0.4078,75.6509,284.4820,0,U,53075,999,21797,-.87366E-4,-.1317E-4,0
STARLINK-4347,2022-077AK,2026-07-01T00:52:20.788608,15.05648828,.0000986,97.2918,0.2901,113.3928,246.7403,0,U,53076,999,21796,.10789E-3,.1501E-4,0
STARLINK-4322,2022-077AM,2026-07-01T01:24:15.228576,15.05664538,.0001548,97.2913,0.4034,119.3416,240.7966,0,U,53078,999,21797,-.86315E-4,-.1302E-4,0
STARLINK-4327,2022-077AN,2026-07-01T01:18:15.103008,15.05475439,.0000982,97.2957,1.4644,148.1598,211.9689,0,U,53079,999,21804,.23083E-2,.33247E-3,0
STARLINK-4330,2022-077AP,2026-07-01T01:42:09.476064,15.05703494,.0002066,97.3022,1.4755,93.5718,266.5746,0,U,53080,999,21804,-.78528E-3,-.11385E-3,0
STARLINK-4326,2022-077AQ,2026-07-01T02:12:09.328032,15.05476691,.000153,97.2919,0.3375,60.8072,299.3308,0,U,53081,999,21797,.24879E-2,.35853E-3,0
STARLINK-4321,2022-077AR,2026-07-01T01:00:19.131840,15.05633093,.0000926,97.2914,0.2585,103.9792,256.1538,0,U,53082,999,21796,.28599E-3,.407E-4,0
STARLINK-4251,2022-077AS,2026-07-01T01:34:12.993024,15.05507234,.0001447,97.2932,1.4162,151.2011,208.9297,0,U,53083,999,21804,.20392E-2,.29374E-3,0
STARLINK-4319,2022-077AT,2026-07-01T01:30:11.833344,15.05652492,.0000482,97.2992,1.4472,71.3606,288.7674,0,U,53084,999,21804,.62038E-4,.839E-5,0
STARLINK-4324,2022-077AU,2026-07-01T01:50:06.492192,15.05678566,.0002357,97.2924,1.4191,93.2690,266.8808,0,U,53085,999,21804,-.34285E-3,-.5004E-4,0
STARLINK-4318,2022-077AV,2026-07-01T00:56:21.598368,15.05649430,.0001685,97.2952,0.4044,86.4214,273.7207,0,U,53086,999,21797,-.13436E-3,-.1994E-4,0
STARLINK-4333,2022-077AX,2026-07-01T00:48:21.170304,15.05660239,.0001058,97.2920,0.2512,106.4452,253.6892,0,U,53088,999,21796,-.67385E-4,-.1029E-4,0
STARLINK-4150,2022-083C,2026-06-29T22:49:25.718304,15.09372688,.00016225,53.1606,29.9852,89.7257,270.3920,0,U,53134,999,21816,.42100825E-2,.68361E-3,0
STARLINK-4023,2022-083D,2026-07-01T04:00:03.000096,15.27725352,.0001214,53.1588,23.5646,113.5805,106.4419,0,U,53135,999,579,.3636E-1,.1076996E-1,0
STARLINK-4152,2022-083E,2026-07-01T04:00:03.000096,15.12055083,.0001881,53.1588,24.5001,60.3618,57.5833,0,U,53136,999,583,.14823E-2,.25578E-3,0
STARLINK-4145,2022-083F,2026-07-01T04:00:03.000096,15.13318020,.0001376,53.1597,24.4803,83.8535,83.9771,0,U,53137,999,578,.13597E-2,.24281E-3,0
STARLINK-4141,2022-083G,2026-06-29T22:43:02.281152,15.08823976,.00011519,53.1611,25.1921,93.1610,266.9513,0,U,53138,999,21900,.12593133E-3,.1716E-4,0
STARLINK-4185,2022-083H,2026-06-30T14:22:57.106848,15.08849472,.00014266,53.1622,27.0790,102.1057,258.0095,0,U,53139,999,21826,.14223751E-3,.1977E-4,0
STARLINK-4170,2022-083J,2026-06-30T14:28:14.944800,15.08831550,.00013051,53.1601,27.0584,86.6126,273.5015,0,U,53140,999,21826,-.20581795E-4,-.615E-5,0
STARLINK-4103,2022-083K,2026-07-01T04:00:03.000096,15.25246178,.000158,53.1606,23.5798,71.5219,341.2657,0,U,53141,999,578,.30835E-1,.842409E-2,0
STARLINK-4101,2022-083L,2026-07-01T04:00:03.000096,15.25579403,.0000804,53.1608,23.6279,88.0379,240.2924,0,U,53142,999,548,.35906E-1,.1004712E-1,0
STARLINK-4102,2022-083M,2026-06-30T14:29:41.419104,15.14254287,.00000871,53.1618,26.6037,335.5638,24.5352,0,U,53143,999,21827,.37830642E-4,.397E-5,0
STARLINK-4100,2022-083N,2026-07-01T04:00:03.000096,15.27245383,.0000726,53.1607,23.6305,69.1209,281.3884,0,U,53144,999,572,.19086E-2,.51644E-3,0
STARLINK-4106,2022-083P,2026-07-01T04:00:03.000096,15.11419635,.000021,53.1595,24.5181,354.6139,353.6880,0,U,53145,999,583,.31233E-2,.53479E-3,0
STARLINK-4094,2022-083R,2026-07-01T04:00:03.000096,15.26667335,.0001451,53.1580,23.5531,87.0453,58.9336,0,U,53147,999,579,.13351E-2,.35313E-3,0
STARLINK-4021,2022-083T,2026-07-01T04:00:03.000096,15.15990535,.0000959,53.1588,14.5988,134.2869,145.0801,0,U,53149,999,572,.56843E-1,.1205828E-1,0
STARLINK-4040,2022-083V,2026-07-01T04:00:03.000096,15.13090631,.0001354,53.1594,14.4638,116.1380,75.4583,0,U,53151,999,578,.83379E-3,.14658E-3,0
STARLINK-4045,2022-083W,2026-07-01T04:00:03.000096,15.55793642,.0000858,53.2171,359.9841,63.2162,45.7931,0,U,53152,999,583,.41232E-2,.300472E-2,0
STARLINK-4098,2022-083X,2026-06-30T22:26:29.920128,15.08835675,.0001263,53.1612,15.5675,86.1821,273.9315,0,U,53153,999,21845,.412E-4,.368E-5,0
STARLINK-4077,2022-083Y,2026-06-29T19:35:32.489664,15.08834242,.00012896,53.1614,20.5941,87.5395,272.5744,0,U,53154,999,21828,.5220092E-4,.543E-5,0
STARLINK-4088,2022-083Z,2026-06-30T22:15:53.889120,15.08837042,.0001239,53.1613,15.5989,89.5081,270.6053,0,U,53155,999,21909,.61446E-4,.69E-5,0
STARLINK-4087,2022-083AA,2026-06-30T21:59:59.665920,15.08807360,.0001215,53.1620,15.5237,95.2595,264.8535,0,U,53156,999,21845,.42104E-3,.6414E-4,0
STARLINK-4054,2022-083AC,2026-07-01T04:00:03.000096,15.12865265,.0001667,53.1592,14.4899,78.7196,138.7460,0,U,53158,999,578,.9386E-3,.16437E-3,0
STARLINK-4111,2022-083AD,2026-06-30T21:54:42.627168,15.08834535,.0001458,53.1624,15.6673,95.6675,264.4483,0,U,53159,999,21845,-.36777E-4,-.873E-5,0
STARLINK-4096,2022-083AE,2026-06-30T12:38:17.609280,15.08830484,.00014069,53.1618,17.4026,90.4961,269.6192,0,U,53160,999,21839,.68577311E-4,.803E-5,0
STARLINK-4055,2022-083AF,2026-07-01T04:00:03.000096,15.11334700,.0000118,53.1602,14.5189,109.3045,253.8078,0,U,53161,999,578,.24786E-2,.42212E-3,0
STARLINK-4114,2022-083AG,2026-06-30T22:01:24.083904,15.08839268,.0001125,53.1609,15.6527,106.7450,253.3665,0,U,53162,999,21845,.17641E-3,.2521E-4,0
STARLINK-4104,2022-083AH,2026-06-29T23:34:02.909568,15.08841891,.00010698,53.1615,19.9950,100.6541,259.4571,0,U,53163,999,21831,-.12798989E-3,-.2324E-4,0
STARLINK-4116,2022-083AJ,2026-06-30T21:44:06.392256,15.08831121,.0001279,53.1605,15.7003,87.8508,272.2630,0,U,53164,999,21845,-.61708E-5,-.386E-5,0
STARLINK-4090,2022-083AK,2026-06-30T13:25:56.644032,15.08849643,.00013065,53.1605,17.2508,85.0510,275.0630,0,U,53165,999,21840,.10723098E-3,.1419E-4,0
STARLINK-4110,2022-083AL,2026-07-01T04:00:03.000096,15.62557030,.0000867,53.2171,355.5897,70.5768,1.0486,0,U,53166,999,590,-.34143E-2,-.299534E-2,0
STARLINK-3683,2022-083AM,2026-06-30T12:16:25.772160,15.08831956,.00012744,53.1592,2.4597,88.7317,271.3820,0,U,53167,999,21859,-.37584517E-4,-.886E-5,0
STARLINK-4105,2022-083AN,2026-06-30T13:31:16.891680,15.08832526,.00011956,53.1613,17.2382,91.1862,268.9266,0,U,53168,999,21840,-.2585512E-5,-.329E-5,0
STARLINK-4117,2022-083AP,2026-06-30T21:16:59.494080,15.08834730,.0001129,53.1608,1.0420,90.4362,269.6759,0,U,53169,999,21864,.61281E-4,.687E-5,0
STARLINK-4095,2022-083AQ,2026-06-30T22:08:36.167712,15.08835632,.0001249,53.1604,10.5736,86.9364,273.1771,0,U,53170,999,21852,.57519E-4,.627E-5,0
STARLINK-4052,2022-083AR,2026-07-01T03:52:32.132064,15.09551382,.000133,53.1603,344.2972,93.0616,267.0528,0,U,53171,999,21890,.53974E-2,.88402E-3,0
STARLINK-4299,2022-083AS,2026-07-01T04:00:03.000096,15.12747471,.0000579,53.1592,9.4129,154.8036,144.6033,0,U,53172,999,583,.25955E-2,.46022E-3,0
STARLINK-4300,2022-083AT,2026-07-01T04:00:03.000096,15.12086453,.0002006,53.1603,349.4906,85.6583,102.3595,0,U,53173,999,568,.11993E-2,.20642E-3,0
STARLINK-4205,2022-083AU,2026-07-01T00:00:00.998784,15.31666613,.0000826,53.1582,23.3790,83.2291,11.9369,0,U,53174,999,576,.2214E-2,.68903E-3,0
STARLINK-4292,2022-083AV,2026-06-30T13:29:59.697600,15.08811397,.00014653,53.1608,27.2411,86.4174,273.6985,0,U,53175,999,21825,-.14902917E-3,-.2657E-4,0
STARLINK-4294,2022-083AW,2026-06-30T21:32:49.571808,15.08837532,.000122,53.1613,0.6465,84.7972,275.3158,0,U,53176,999,21865,.67416E-4,.785E-5,0
